<?xml version='1.0' encoding='UTF-8' standalone='yes' ?><TrainingCenterDatabase xsi:schemaLocation="http://www.garmin.com/xmlschemas/TrainingCenterDatabase/v2 http://www.garmin.com/xmlschemas/TrainingCenterDatabasev2.xsd" xmlns:ns5="http://www.garmin.com/xmlschemas/ActivityGoals/v1" xmlns:ns3="http://www.garmin.com/xmlschemas/ActivityExtension/v2" xmlns:ns2="http://www.garmin.com/xmlschemas/UserProfile/v2" xmlns="http://www.garmin.com/xmlschemas/TrainingCenterDatabase/v2" xmlns:xsi="http://www.w3.org/2001/XMLSchema-instance" xmlns:ns4="http://www.garmin.com/xmlschemas/ProfileExtension/v1"><Activities><Activity Sport="Other"><Id>2026-02-20T16:10:27Z</Id><Author><Name>Samsung Health</Name></Author><Lap StartTime="2026-02-20T16:10:27Z"><TotalTimeSeconds>5259</TotalTimeSeconds><DistanceMeters>0.0</DistanceMeters><Calories>642</Calories><MaximumSpeed>0.0</MaximumSpeed><AverageHeartRateBpm><Value>113</Value></AverageHeartRateBpm><MaximumHeartRateBpm><Value>155</Value></MaximumHeartRateBpm><Intensity>Active</Intensity><TriggerMethod>Manual</TriggerMethod><Track><Trackpoint><Time>2026-02-20T16:10:36Z</Time><DistanceMeters>0</DistanceMeters><HeartRateBpm><Value>98</Value></HeartRateBpm></Trackpoint><Trackpoint><Time>2026-02-20T16:10:46Z</Time><HeartRateBpm><Value>91</Value></HeartRateBpm></Trackpoint><Trackpoint><Time>2026-02-20T16:10:57Z</Time><HeartRateBpm><Value>83</Value></HeartRateBpm></Trackpoint><Trackpoint><Time>2026-02-20T16:11:07Z</Time><HeartRateBpm><Value>84</Value></HeartRateBpm></Trackpoint><Trackpoint><Time>2026-02-20T16:11:17Z</Time><HeartRateBpm><Value>89</Value></HeartRateBpm></Trackpoint><Trackpoint><Time>2026-02-20T16:11:27Z</Time><HeartRateBpm><Value>121</Value></HeartRateBpm></Trackpoint><Trackpoint><Time>2026-02-20T16:11:37Z</Time><HeartRateBpm><Value>109</Value></HeartRateBpm></Trackpoint><Trackpoint><Time>2026-02-20T16:11:48Z</Time><HeartRateBpm><Value>121</Value></HeartRateBpm></Trackpoint><Trackpoint><Time>2026-02-20T16:11:58Z</Time><HeartRateBpm><Value>119</Value></HeartRateBpm></Trackpoint><Trackpoint><Time>2026-02-20T16:12:08Z</Time><HeartRateBpm><Value>114</Value></HeartRateBpm></Trackpoint><Trackpoint><Time>2026-02-20T16:12:18Z</Time><HeartRateBpm><Value>111</Value></HeartRateBpm></Trackpoint><Trackpoint><Time>2026-02-20T16:12:28Z</Time><HeartRateBpm><Value>124</Value></HeartRateBpm></Trackpoint><Trackpoint><Time>2026-02-20T16:12:38Z</Time><HeartRateBpm><Value>124</Value></HeartRateBpm></Trackpoint><Trackpoint><Time>2026-02-20T16:12:48Z</Time><HeartRateBpm><Value>123</Value></HeartRateBpm></Trackpoint><Trackpoint><Time>2026-02-20T16:12:59Z</Time><HeartRateBpm><Value>120</Value></HeartRateBpm></Trackpoint><Trackpoint><Time>2026-02-20T16:13:09Z</Time><HeartRateBpm><Value>117</Value></HeartRateBpm></Trackpoint><Trackpoint><Time>2026-02-20T16:13:19Z</Time><HeartRateBpm><Value>116</Value></HeartRateBpm></Trackpoint><Trackpoint><Time>2026-02-20T16:13:29Z</Time><HeartRateBpm><Value>108</Value></HeartRateBpm></Trackpoint><Trackpoint><Time>2026-02-20T16:13:39Z</Time><HeartRateBpm><Value>108</Value></HeartRateBpm></Trackpoint><Trackpoint><Time>2026-02-20T16:13:50Z</Time><HeartRateBpm><Value>99</Value></HeartRateBpm></Trackpoint><Trackpoint><Time>2026-02-20T16:14:00Z</Time><HeartRateBpm><Value>102</Value></HeartRateBpm></Trackpoint><Trackpoint><Time>2026-02-20T16:14:10Z</Time><HeartRateBpm><Value>90</Value></HeartRateBpm></Trackpoint><Trackpoint><Time>2026-02-20T16:14:20Z</Time><HeartRateBpm><Value>83</Value></HeartRateBpm></Trackpoint><Trackpoint><Time>2026-02-20T16:14:30Z</Time><HeartRateBpm><Value>85</Value></HeartRateBpm></Trackpoint><Trackpoint><Time>2026-02-20T16:14:40Z</Time><HeartRateBpm><Value>85</Value></HeartRateBpm></Trackpoint><Trackpoint><Time>2026-02-20T16:14:51Z</Time><HeartRateBpm><Value>131</Value></HeartRateBpm></Trackpoint><Trackpoint><Time>2026-02-20T16:15:01Z</Time><HeartRateBpm><Value>88</Value></HeartRateBpm></Trackpoint><Trackpoint><Time>2026-02-20T16:15:11Z</Time><HeartRateBpm><Value>84</Value></HeartRateBpm></Trackpoint><Trackpoint><Time>2026-02-20T16:15:21Z</Time><HeartRateBpm><Value>86</Value></HeartRateBpm></Trackpoint><Trackpoint><Time>2026-02-20T16:15:31Z</Time><HeartRateBpm><Value>92</Value></HeartRateBpm></Trackpoint><Trackpoint><Time>2026-02-20T16:15:41Z</Time><HeartRateBpm><Value>131</Value></HeartRateBpm></Trackpoint><Trackpoint><Time>2026-02-20T16:15:52Z</Time><HeartRateBpm><Value>128</Value></HeartRateBpm></Trackpoint><Trackpoint><Time>2026-02-20T16:16:02Z</Time><HeartRateBpm><Value>121</Value></HeartRateBpm></Trackpoint><Trackpoint><Time>2026-02-20T16:16:12Z</Time><HeartRateBpm><Value>115</Value></HeartRateBpm></Trackpoint><Trackpoint><Time>2026-02-20T16:16:22Z</Time><HeartRateBpm><Value>115</Value></HeartRateBpm></Trackpoint><Trackpoint><Time>2026-02-20T16:16:32Z</Time><HeartRateBpm><Value>114</Value></HeartRateBpm></Trackpoint><Trackpoint><Time>2026-02-20T16:16:43Z</Time><HeartRateBpm><Value>111</Value></HeartRateBpm></Trackpoint><Trackpoint><Time>2026-02-20T16:16:53Z</Time><HeartRateBpm><Value>104</Value></HeartRateBpm></Trackpoint><Trackpoint><Time>2026-02-20T16:17:03Z</Time><HeartRateBpm><Value>100</Value></HeartRateBpm></Trackpoint><Trackpoint><Time>2026-02-20T16:17:13Z</Time><HeartRateBpm><Value>96</Value></HeartRateBpm></Trackpoint><Trackpoint><Time>2026-02-20T16:17:23Z</Time><HeartRateBpm><Value>95</Value></HeartRateBpm></Trackpoint><Trackpoint><Time>2026-02-20T16:17:33Z</Time><HeartRateBpm><Value>123</Value></HeartRateBpm></Trackpoint><Trackpoint><Time>2026-02-20T16:17:44Z</Time><HeartRateBpm><Value>123</Value></HeartRateBpm></Trackpoint><Trackpoint><Time>2026-02-20T16:17:54Z</Time><HeartRateBpm><Value>116</Value></HeartRateBpm></Trackpoint><Trackpoint><Time>2026-02-20T16:18:04Z</Time><HeartRateBpm><Value>110</Value></HeartRateBpm></Trackpoint><Trackpoint><Time>2026-02-20T16:18:14Z</Time><HeartRateBpm><Value>110</Value></HeartRateBpm></Trackpoint><Trackpoint><Time>2026-02-20T16:18:24Z</Time><HeartRateBpm><Value>120</Value></HeartRateBpm></Trackpoint><Trackpoint><Time>2026-02-20T16:18:34Z</Time><HeartRateBpm><Value>135</Value></HeartRateBpm></Trackpoint><Trackpoint><Time>2026-02-20T16:18:44Z</Time><HeartRateBpm><Value>118</Value></HeartRateBpm></Trackpoint><Trackpoint><Time>2026-02-20T16:18:55Z</Time><HeartRateBpm><Value>120</Value></HeartRateBpm></Trackpoint><Trackpoint><Time>2026-02-20T16:19:05Z</Time><HeartRateBpm><Value>120</Value></HeartRateBpm></Trackpoint><Trackpoint><Time>2026-02-20T16:19:15Z</Time><HeartRateBpm><Value>131</Value></HeartRateBpm></Trackpoint><Trackpoint><Time>2026-02-20T16:19:25Z</Time><HeartRateBpm><Value>135</Value></HeartRateBpm></Trackpoint><Trackpoint><Time>2026-02-20T16:19:35Z</Time><HeartRateBpm><Value>140</Value></HeartRateBpm></Trackpoint><Trackpoint><Time>2026-02-20T16:19:46Z</Time><HeartRateBpm><Value>140</Value></HeartRateBpm></Trackpoint><Trackpoint><Time>2026-02-20T16:19:56Z</Time><HeartRateBpm><Value>133</Value></HeartRateBpm></Trackpoint><Trackpoint><Time>2026-02-20T16:20:06Z</Time><HeartRateBpm><Value>131</Value></HeartRateBpm></Trackpoint><Trackpoint><Time>2026-02-20T16:20:16Z</Time><HeartRateBpm><Value>119</Value></HeartRateBpm></Trackpoint><Trackpoint><Time>2026-02-20T16:20:26Z</Time><HeartRateBpm><Value>117</Value></HeartRateBpm></Trackpoint><Trackpoint><Time>2026-02-20T16:20:36Z</Time><HeartRateBpm><Value>137</Value></HeartRateBpm></Trackpoint><Trackpoint><Time>2026-02-20T16:20:47Z</Time><HeartRateBpm><Value>125</Value></HeartRateBpm></Trackpoint><Trackpoint><Time>2026-02-20T16:20:57Z</Time><HeartRateBpm><Value>129</Value></HeartRateBpm></Trackpoint><Trackpoint><Time>2026-02-20T16:21:07Z</Time><HeartRateBpm><Value>137</Value></HeartRateBpm></Trackpoint><Trackpoint><Time>2026-02-20T16:21:17Z</Time><HeartRateBpm><Value>136</Value></HeartRateBpm></Trackpoint><Trackpoint><Time>2026-02-20T16:21:27Z</Time><HeartRateBpm><Value>131</Value></HeartRateBpm></Trackpoint><Trackpoint><Time>2026-02-20T16:21:37Z</Time><HeartRateBpm><Value>124</Value></HeartRateBpm></Trackpoint><Trackpoint><Time>2026-02-20T16:21:48Z</Time><HeartRateBpm><Value>118</Value></HeartRateBpm></Trackpoint><Trackpoint><Time>2026-02-20T16:21:58Z</Time><HeartRateBpm><Value>109</Value></HeartRateBpm></Trackpoint><Trackpoint><Time>2026-02-20T16:22:08Z</Time><HeartRateBpm><Value>109</Value></HeartRateBpm></Trackpoint><Trackpoint><Time>2026-02-20T16:22:18Z</Time><HeartRateBpm><Value>113</Value></HeartRateBpm></Trackpoint><Trackpoint><Time>2026-02-20T16:22:28Z</Time><HeartRateBpm><Value>113</Value></HeartRateBpm></Trackpoint><Trackpoint><Time>2026-02-20T16:22:39Z</Time><HeartRateBpm><Value>117</Value></HeartRateBpm></Trackpoint><Trackpoint><Time>2026-02-20T16:22:49Z</Time><HeartRateBpm><Value>113</Value></HeartRateBpm></Trackpoint><Trackpoint><Time>2026-02-20T16:22:59Z</Time><HeartRateBpm><Value>130</Value></HeartRateBpm></Trackpoint><Trackpoint><Time>2026-02-20T16:23:09Z</Time><HeartRateBpm><Value>125</Value></HeartRateBpm></Trackpoint><Trackpoint><Time>2026-02-20T16:23:19Z</Time><HeartRateBpm><Value>125</Value></HeartRateBpm></Trackpoint><Trackpoint><Time>2026-02-20T16:23:29Z</Time><HeartRateBpm><Value>130</Value></HeartRateBpm></Trackpoint><Trackpoint><Time>2026-02-20T16:23:39Z</Time><HeartRateBpm><Value>129</Value></HeartRateBpm></Trackpoint><Trackpoint><Time>2026-02-20T16:23:50Z</Time><HeartRateBpm><Value>127</Value></HeartRateBpm></Trackpoint><Trackpoint><Time>2026-02-20T16:24:00Z</Time><HeartRateBpm><Value>137</Value></HeartRateBpm></Trackpoint><Trackpoint><Time>2026-02-20T16:24:10Z</Time><HeartRateBpm><Value>132</Value></HeartRateBpm></Trackpoint><Trackpoint><Time>2026-02-20T16:24:20Z</Time><HeartRateBpm><Value>137</Value></HeartRateBpm></Trackpoint><Trackpoint><Time>2026-02-20T16:24:31Z</Time><HeartRateBpm><Value>137</Value></HeartRateBpm></Trackpoint><Trackpoint><Time>2026-02-20T16:24:41Z</Time><HeartRateBpm><Value>139</Value></HeartRateBpm></Trackpoint><Trackpoint><Time>2026-02-20T16:24:51Z</Time><HeartRateBpm><Value>134</Value></HeartRateBpm></Trackpoint><Trackpoint><Time>2026-02-20T16:25:01Z</Time><HeartRateBpm><Value>127</Value></HeartRateBpm></Trackpoint><Trackpoint><Time>2026-02-20T16:25:11Z</Time><HeartRateBpm><Value>132</Value></HeartRateBpm></Trackpoint><Trackpoint><Time>2026-02-20T16:25:21Z</Time><HeartRateBpm><Value>113</Value></HeartRateBpm></Trackpoint><Trackpoint><Time>2026-02-20T16:25:32Z</Time><HeartRateBpm><Value>111</Value></HeartRateBpm></Trackpoint><Trackpoint><Time>2026-02-20T16:25:42Z</Time><HeartRateBpm><Value>112</Value></HeartRateBpm></Trackpoint><Trackpoint><Time>2026-02-20T16:25:52Z</Time><HeartRateBpm><Value>108</Value></HeartRateBpm></Trackpoint><Trackpoint><Time>2026-02-20T16:26:02Z</Time><HeartRateBpm><Value>110</Value></HeartRateBpm></Trackpoint><Trackpoint><Time>2026-02-20T16:26:12Z</Time><HeartRateBpm><Value>109</Value></HeartRateBpm></Trackpoint><Trackpoint><Time>2026-02-20T16:26:22Z</Time><HeartRateBpm><Value>105</Value></HeartRateBpm></Trackpoint><Trackpoint><Time>2026-02-20T16:26:33Z</Time><HeartRateBpm><Value>101</Value></HeartRateBpm></Trackpoint><Trackpoint><Time>2026-02-20T16:26:43Z</Time><HeartRateBpm><Value>100</Value></HeartRateBpm></Trackpoint><Trackpoint><Time>2026-02-20T16:26:53Z</Time><HeartRateBpm><Value>96</Value></HeartRateBpm></Trackpoint><Trackpoint><Time>2026-02-20T16:27:03Z</Time><HeartRateBpm><Value>95</Value></HeartRateBpm></Trackpoint><Trackpoint><Time>2026-02-20T16:27:13Z</Time><HeartRateBpm><Value>95</Value></HeartRateBpm></Trackpoint><Trackpoint><Time>2026-02-20T16:27:24Z</Time><HeartRateBpm><Value>89</Value></HeartRateBpm></Trackpoint><Trackpoint><Time>2026-02-20T16:27:34Z</Time><HeartRateBpm><Value>89</Value></HeartRateBpm></Trackpoint><Trackpoint><Time>2026-02-20T16:27:44Z</Time><HeartRateBpm><Value>124</Value></HeartRateBpm></Trackpoint><Trackpoint><Time>2026-02-20T16:27:54Z</Time><HeartRateBpm><Value>84</Value></HeartRateBpm></Trackpoint><Trackpoint><Time>2026-02-20T16:28:04Z</Time><HeartRateBpm><Value>102</Value></HeartRateBpm></Trackpoint><Trackpoint><Time>2026-02-20T16:28:14Z</Time><HeartRateBpm><Value>124</Value></HeartRateBpm></Trackpoint><Trackpoint><Time>2026-02-20T16:28:25Z</Time><HeartRateBpm><Value>117</Value></HeartRateBpm></Trackpoint><Trackpoint><Time>2026-02-20T16:28:35Z</Time><HeartRateBpm><Value>115</Value></HeartRateBpm></Trackpoint><Trackpoint><Time>2026-02-20T16:28:45Z</Time><HeartRateBpm><Value>117</Value></HeartRateBpm></Trackpoint><Trackpoint><Time>2026-02-20T16:28:55Z</Time><HeartRateBpm><Value>110</Value></HeartRateBpm></Trackpoint><Trackpoint><Time>2026-02-20T16:29:05Z</Time><HeartRateBpm><Value>117</Value></HeartRateBpm></Trackpoint><Trackpoint><Time>2026-02-20T16:29:15Z</Time><HeartRateBpm><Value>110</Value></HeartRateBpm></Trackpoint><Trackpoint><Time>2026-02-20T16:29:25Z</Time><HeartRateBpm><Value>105</Value></HeartRateBpm></Trackpoint><Trackpoint><Time>2026-02-20T16:29:36Z</Time><HeartRateBpm><Value>108</Value></HeartRateBpm></Trackpoint><Trackpoint><Time>2026-02-20T16:29:46Z</Time><HeartRateBpm><Value>123</Value></HeartRateBpm></Trackpoint><Trackpoint><Time>2026-02-20T16:29:56Z</Time><HeartRateBpm><Value>110</Value></HeartRateBpm></Trackpoint><Trackpoint><Time>2026-02-20T16:30:06Z</Time><HeartRateBpm><Value>123</Value></HeartRateBpm></Trackpoint><Trackpoint><Time>2026-02-20T16:30:16Z</Time><HeartRateBpm><Value>122</Value></HeartRateBpm></Trackpoint><Trackpoint><Time>2026-02-20T16:30:27Z</Time><HeartRateBpm><Value>106</Value></HeartRateBpm></Trackpoint><Trackpoint><Time>2026-02-20T16:30:37Z</Time><HeartRateBpm><Value>99</Value></HeartRateBpm></Trackpoint><Trackpoint><Time>2026-02-20T16:30:47Z</Time><HeartRateBpm><Value>119</Value></HeartRateBpm></Trackpoint><Trackpoint><Time>2026-02-20T16:30:57Z</Time><HeartRateBpm><Value>112</Value></HeartRateBpm></Trackpoint><Trackpoint><Time>2026-02-20T16:31:07Z</Time><HeartRateBpm><Value>112</Value></HeartRateBpm></Trackpoint><Trackpoint><Time>2026-02-20T16:31:17Z</Time><HeartRateBpm><Value>109</Value></HeartRateBpm></Trackpoint><Trackpoint><Time>2026-02-20T16:31:28Z</Time><HeartRateBpm><Value>118</Value></HeartRateBpm></Trackpoint><Trackpoint><Time>2026-02-20T16:31:38Z</Time><HeartRateBpm><Value>119</Value></HeartRateBpm></Trackpoint><Trackpoint><Time>2026-02-20T16:31:48Z</Time><HeartRateBpm><Value>137</Value></HeartRateBpm></Trackpoint><Trackpoint><Time>2026-02-20T16:31:58Z</Time><HeartRateBpm><Value>117</Value></HeartRateBpm></Trackpoint><Trackpoint><Time>2026-02-20T16:32:08Z</Time><HeartRateBpm><Value>118</Value></HeartRateBpm></Trackpoint><Trackpoint><Time>2026-02-20T16:32:19Z</Time><HeartRateBpm><Value>120</Value></HeartRateBpm></Trackpoint><Trackpoint><Time>2026-02-20T16:32:29Z</Time><HeartRateBpm><Value>136</Value></HeartRateBpm></Trackpoint><Trackpoint><Time>2026-02-20T16:32:39Z</Time><HeartRateBpm><Value>137</Value></HeartRateBpm></Trackpoint><Trackpoint><Time>2026-02-20T16:32:49Z</Time><HeartRateBpm><Value>139</Value></HeartRateBpm></Trackpoint><Trackpoint><Time>2026-02-20T16:32:59Z</Time><HeartRateBpm><Value>139</Value></HeartRateBpm></Trackpoint><Trackpoint><Time>2026-02-20T16:33:09Z</Time><HeartRateBpm><Value>126</Value></HeartRateBpm></Trackpoint><Trackpoint><Time>2026-02-20T16:33:19Z</Time><HeartRateBpm><Value>124</Value></HeartRateBpm></Trackpoint><Trackpoint><Time>2026-02-20T16:33:30Z</Time><HeartRateBpm><Value>121</Value></HeartRateBpm></Trackpoint><Trackpoint><Time>2026-02-20T16:33:40Z</Time><HeartRateBpm><Value>125</Value></HeartRateBpm></Trackpoint><Trackpoint><Time>2026-02-20T16:33:50Z</Time><HeartRateBpm><Value>125</Value></HeartRateBpm></Trackpoint><Trackpoint><Time>2026-02-20T16:34:00Z</Time><HeartRateBpm><Value>119</Value></HeartRateBpm></Trackpoint><Trackpoint><Time>2026-02-20T16:34:11Z</Time><HeartRateBpm><Value>110</Value></HeartRateBpm></Trackpoint><Trackpoint><Time>2026-02-20T16:34:21Z</Time><HeartRateBpm><Value>110</Value></HeartRateBpm></Trackpoint><Trackpoint><Time>2026-02-20T16:34:31Z</Time><HeartRateBpm><Value>110</Value></HeartRateBpm></Trackpoint><Trackpoint><Time>2026-02-20T16:34:41Z</Time><HeartRateBpm><Value>114</Value></HeartRateBpm></Trackpoint><Trackpoint><Time>2026-02-20T16:34:51Z</Time><HeartRateBpm><Value>105</Value></HeartRateBpm></Trackpoint><Trackpoint><Time>2026-02-20T16:35:01Z</Time><HeartRateBpm><Value>111</Value></HeartRateBpm></Trackpoint><Trackpoint><Time>2026-02-20T16:35:12Z</Time><HeartRateBpm><Value>113</Value></HeartRateBpm></Trackpoint><Trackpoint><Time>2026-02-20T16:35:21Z</Time><HeartRateBpm><Value>111</Value></HeartRateBpm></Trackpoint><Trackpoint><Time>2026-02-20T16:35:32Z</Time><HeartRateBpm><Value>114</Value></HeartRateBpm></Trackpoint><Trackpoint><Time>2026-02-20T16:35:42Z</Time><HeartRateBpm><Value>121</Value></HeartRateBpm></Trackpoint><Trackpoint><Time>2026-02-20T16:35:52Z</Time><HeartRateBpm><Value>121</Value></HeartRateBpm></Trackpoint><Trackpoint><Time>2026-02-20T16:36:02Z</Time><HeartRateBpm><Value>124</Value></HeartRateBpm></Trackpoint><Trackpoint><Time>2026-02-20T16:36:12Z</Time><HeartRateBpm><Value>123</Value></HeartRateBpm></Trackpoint><Trackpoint><Time>2026-02-20T16:36:23Z</Time><HeartRateBpm><Value>122</Value></HeartRateBpm></Trackpoint><Trackpoint><Time>2026-02-20T16:36:33Z</Time><HeartRateBpm><Value>124</Value></HeartRateBpm></Trackpoint><Trackpoint><Time>2026-02-20T16:36:43Z</Time><HeartRateBpm><Value>124</Value></HeartRateBpm></Trackpoint><Trackpoint><Time>2026-02-20T16:36:53Z</Time><HeartRateBpm><Value>119</Value></HeartRateBpm></Trackpoint><Trackpoint><Time>2026-02-20T16:37:03Z</Time><HeartRateBpm><Value>145</Value></HeartRateBpm></Trackpoint><Trackpoint><Time>2026-02-20T16:37:14Z</Time><HeartRateBpm><Value>115</Value></HeartRateBpm></Trackpoint><Trackpoint><Time>2026-02-20T16:37:24Z</Time><HeartRateBpm><Value>118</Value></HeartRateBpm></Trackpoint><Trackpoint><Time>2026-02-20T16:37:34Z</Time><HeartRateBpm><Value>134</Value></HeartRateBpm></Trackpoint><Trackpoint><Time>2026-02-20T16:37:44Z</Time><HeartRateBpm><Value>144</Value></HeartRateBpm></Trackpoint><Trackpoint><Time>2026-02-20T16:37:54Z</Time><HeartRateBpm><Value>145</Value></HeartRateBpm></Trackpoint><Trackpoint><Time>2026-02-20T16:38:05Z</Time><HeartRateBpm><Value>155</Value></HeartRateBpm></Trackpoint><Trackpoint><Time>2026-02-20T16:38:14Z</Time><HeartRateBpm><Value>143</Value></HeartRateBpm></Trackpoint><Trackpoint><Time>2026-02-20T16:38:25Z</Time><HeartRateBpm><Value>142</Value></HeartRateBpm></Trackpoint><Trackpoint><Time>2026-02-20T16:38:35Z</Time><HeartRateBpm><Value>143</Value></HeartRateBpm></Trackpoint><Trackpoint><Time>2026-02-20T16:38:45Z</Time><HeartRateBpm><Value>155</Value></HeartRateBpm></Trackpoint><Trackpoint><Time>2026-02-20T16:38:55Z</Time><HeartRateBpm><Value>155</Value></HeartRateBpm></Trackpoint><Trackpoint><Time>2026-02-20T16:39:05Z</Time><HeartRateBpm><Value>152</Value></HeartRateBpm></Trackpoint><Trackpoint><Time>2026-02-20T16:39:16Z</Time><HeartRateBpm><Value>137</Value></HeartRateBpm></Trackpoint><Trackpoint><Time>2026-02-20T16:39:26Z</Time><HeartRateBpm><Value>136</Value></HeartRateBpm></Trackpoint><Trackpoint><Time>2026-02-20T16:39:36Z</Time><HeartRateBpm><Value>133</Value></HeartRateBpm></Trackpoint><Trackpoint><Time>2026-02-20T16:39:46Z</Time><HeartRateBpm><Value>131</Value></HeartRateBpm></Trackpoint><Trackpoint><Time>2026-02-20T16:39:56Z</Time><HeartRateBpm><Value>117</Value></HeartRateBpm></Trackpoint><Trackpoint><Time>2026-02-20T16:40:06Z</Time><HeartRateBpm><Value>115</Value></HeartRateBpm></Trackpoint><Trackpoint><Time>2026-02-20T16:40:17Z</Time><HeartRateBpm><Value>115</Value></HeartRateBpm></Trackpoint><Trackpoint><Time>2026-02-20T16:40:27Z</Time><HeartRateBpm><Value>108</Value></HeartRateBpm></Trackpoint><Trackpoint><Time>2026-02-20T16:40:37Z</Time><HeartRateBpm><Value>117</Value></HeartRateBpm></Trackpoint><Trackpoint><Time>2026-02-20T16:40:47Z</Time><HeartRateBpm><Value>117</Value></HeartRateBpm></Trackpoint><Trackpoint><Time>2026-02-20T16:40:57Z</Time><HeartRateBpm><Value>115</Value></HeartRateBpm></Trackpoint><Trackpoint><Time>2026-02-20T16:41:08Z</Time><HeartRateBpm><Value>107</Value></HeartRateBpm></Trackpoint><Trackpoint><Time>2026-02-20T16:41:18Z</Time><HeartRateBpm><Value>113</Value></HeartRateBpm></Trackpoint><Trackpoint><Time>2026-02-20T16:41:28Z</Time><HeartRateBpm><Value>109</Value></HeartRateBpm></Trackpoint><Trackpoint><Time>2026-02-20T16:41:38Z</Time><HeartRateBpm><Value>111</Value></HeartRateBpm></Trackpoint><Trackpoint><Time>2026-02-20T16:41:48Z</Time><HeartRateBpm><Value>121</Value></HeartRateBpm></Trackpoint><Trackpoint><Time>2026-02-20T16:41:58Z</Time><HeartRateBpm><Value>117</Value></HeartRateBpm></Trackpoint><Trackpoint><Time>2026-02-20T16:42:09Z</Time><HeartRateBpm><Value>121</Value></HeartRateBpm></Trackpoint><Trackpoint><Time>2026-02-20T16:42:19Z</Time><HeartRateBpm><Value>110</Value></HeartRateBpm></Trackpoint><Trackpoint><Time>2026-02-20T16:42:29Z</Time><HeartRateBpm><Value>109</Value></HeartRateBpm></Trackpoint><Trackpoint><Time>2026-02-20T16:42:39Z</Time><HeartRateBpm><Value>109</Value></HeartRateBpm></Trackpoint><Trackpoint><Time>2026-02-20T16:42:49Z</Time><HeartRateBpm><Value>109</Value></HeartRateBpm></Trackpoint><Trackpoint><Time>2026-02-20T16:43:00Z</Time><HeartRateBpm><Value>104</Value></HeartRateBpm></Trackpoint><Trackpoint><Time>2026-02-20T16:43:10Z</Time><HeartRateBpm><Value>106</Value></HeartRateBpm></Trackpoint><Trackpoint><Time>2026-02-20T16:43:20Z</Time><HeartRateBpm><Value>109</Value></HeartRateBpm></Trackpoint><Trackpoint><Time>2026-02-20T16:43:30Z</Time><HeartRateBpm><Value>108</Value></HeartRateBpm></Trackpoint><Trackpoint><Time>2026-02-20T16:43:40Z</Time><HeartRateBpm><Value>106</Value></HeartRateBpm></Trackpoint><Trackpoint><Time>2026-02-20T16:43:50Z</Time><HeartRateBpm><Value>153</Value></HeartRateBpm></Trackpoint><Trackpoint><Time>2026-02-20T16:44:00Z</Time><HeartRateBpm><Value>117</Value></HeartRateBpm></Trackpoint><Trackpoint><Time>2026-02-20T16:44:11Z</Time><HeartRateBpm><Value>144</Value></HeartRateBpm></Trackpoint><Trackpoint><Time>2026-02-20T16:44:21Z</Time><HeartRateBpm><Value>147</Value></HeartRateBpm></Trackpoint><Trackpoint><Time>2026-02-20T16:44:31Z</Time><HeartRateBpm><Value>153</Value></HeartRateBpm></Trackpoint><Trackpoint><Time>2026-02-20T16:44:41Z</Time><HeartRateBpm><Value>153</Value></HeartRateBpm></Trackpoint><Trackpoint><Time>2026-02-20T16:44:51Z</Time><HeartRateBpm><Value>152</Value></HeartRateBpm></Trackpoint><Trackpoint><Time>2026-02-20T16:45:02Z</Time><HeartRateBpm><Value>138</Value></HeartRateBpm></Trackpoint><Trackpoint><Time>2026-02-20T16:45:12Z</Time><HeartRateBpm><Value>131</Value></HeartRateBpm></Trackpoint><Trackpoint><Time>2026-02-20T16:45:22Z</Time><HeartRateBpm><Value>130</Value></HeartRateBpm></Trackpoint><Trackpoint><Time>2026-02-20T16:45:32Z</Time><HeartRateBpm><Value>129</Value></HeartRateBpm></Trackpoint><Trackpoint><Time>2026-02-20T16:45:42Z</Time><HeartRateBpm><Value>133</Value></HeartRateBpm></Trackpoint><Trackpoint><Time>2026-02-20T16:45:52Z</Time><HeartRateBpm><Value>145</Value></HeartRateBpm></Trackpoint><Trackpoint><Time>2026-02-20T16:46:02Z</Time><HeartRateBpm><Value>135</Value></HeartRateBpm></Trackpoint><Trackpoint><Time>2026-02-20T16:46:13Z</Time><HeartRateBpm><Value>135</Value></HeartRateBpm></Trackpoint><Trackpoint><Time>2026-02-20T16:46:23Z</Time><HeartRateBpm><Value>141</Value></HeartRateBpm></Trackpoint><Trackpoint><Time>2026-02-20T16:46:33Z</Time><HeartRateBpm><Value>141</Value></HeartRateBpm></Trackpoint><Trackpoint><Time>2026-02-20T16:46:43Z</Time><HeartRateBpm><Value>145</Value></HeartRateBpm></Trackpoint><Trackpoint><Time>2026-02-20T16:46:53Z</Time><HeartRateBpm><Value>138</Value></HeartRateBpm></Trackpoint><Trackpoint><Time>2026-02-20T16:47:04Z</Time><HeartRateBpm><Value>132</Value></HeartRateBpm></Trackpoint><Trackpoint><Time>2026-02-20T16:47:14Z</Time><HeartRateBpm><Value>132</Value></HeartRateBpm></Trackpoint><Trackpoint><Time>2026-02-20T16:47:24Z</Time><HeartRateBpm><Value>129</Value></HeartRateBpm></Trackpoint><Trackpoint><Time>2026-02-20T16:47:34Z</Time><HeartRateBpm><Value>128</Value></HeartRateBpm></Trackpoint><Trackpoint><Time>2026-02-20T16:47:44Z</Time><HeartRateBpm><Value>122</Value></HeartRateBpm></Trackpoint><Trackpoint><Time>2026-02-20T16:47:55Z</Time><HeartRateBpm><Value>122</Value></HeartRateBpm></Trackpoint><Trackpoint><Time>2026-02-20T16:48:05Z</Time><HeartRateBpm><Value>115</Value></HeartRateBpm></Trackpoint><Trackpoint><Time>2026-02-20T16:48:15Z</Time><HeartRateBpm><Value>116</Value></HeartRateBpm></Trackpoint><Trackpoint><Time>2026-02-20T16:48:25Z</Time><HeartRateBpm><Value>122</Value></HeartRateBpm></Trackpoint><Trackpoint><Time>2026-02-20T16:48:35Z</Time><HeartRateBpm><Value>122</Value></HeartRateBpm></Trackpoint><Trackpoint><Time>2026-02-20T16:48:45Z</Time><HeartRateBpm><Value>113</Value></HeartRateBpm></Trackpoint><Trackpoint><Time>2026-02-20T16:48:56Z</Time><HeartRateBpm><Value>129</Value></HeartRateBpm></Trackpoint><Trackpoint><Time>2026-02-20T16:49:06Z</Time><HeartRateBpm><Value>101</Value></HeartRateBpm></Trackpoint><Trackpoint><Time>2026-02-20T16:49:16Z</Time><HeartRateBpm><Value>107</Value></HeartRateBpm></Trackpoint><Trackpoint><Time>2026-02-20T16:49:26Z</Time><HeartRateBpm><Value>115</Value></HeartRateBpm></Trackpoint><Trackpoint><Time>2026-02-20T16:49:36Z</Time><HeartRateBpm><Value>118</Value></HeartRateBpm></Trackpoint><Trackpoint><Time>2026-02-20T16:49:47Z</Time><HeartRateBpm><Value>129</Value></HeartRateBpm></Trackpoint><Trackpoint><Time>2026-02-20T16:49:57Z</Time><HeartRateBpm><Value>132</Value></HeartRateBpm></Trackpoint><Trackpoint><Time>2026-02-20T16:50:07Z</Time><HeartRateBpm><Value>119</Value></HeartRateBpm></Trackpoint><Trackpoint><Time>2026-02-20T16:50:17Z</Time><HeartRateBpm><Value>121</Value></HeartRateBpm></Trackpoint><Trackpoint><Time>2026-02-20T16:50:27Z</Time><HeartRateBpm><Value>122</Value></HeartRateBpm></Trackpoint><Trackpoint><Time>2026-02-20T16:50:37Z</Time><HeartRateBpm><Value>118</Value></HeartRateBpm></Trackpoint><Trackpoint><Time>2026-02-20T16:50:48Z</Time><HeartRateBpm><Value>124</Value></HeartRateBpm></Trackpoint><Trackpoint><Time>2026-02-20T16:50:58Z</Time><HeartRateBpm><Value>140</Value></HeartRateBpm></Trackpoint><Trackpoint><Time>2026-02-20T16:51:08Z</Time><HeartRateBpm><Value>130</Value></HeartRateBpm></Trackpoint><Trackpoint><Time>2026-02-20T16:51:18Z</Time><HeartRateBpm><Value>124</Value></HeartRateBpm></Trackpoint><Trackpoint><Time>2026-02-20T16:51:28Z</Time><HeartRateBpm><Value>121</Value></HeartRateBpm></Trackpoint><Trackpoint><Time>2026-02-20T16:51:38Z</Time><HeartRateBpm><Value>117</Value></HeartRateBpm></Trackpoint><Trackpoint><Time>2026-02-20T16:51:49Z</Time><HeartRateBpm><Value>117</Value></HeartRateBpm></Trackpoint><Trackpoint><Time>2026-02-20T16:51:59Z</Time><HeartRateBpm><Value>120</Value></HeartRateBpm></Trackpoint><Trackpoint><Time>2026-02-20T16:52:09Z</Time><HeartRateBpm><Value>120</Value></HeartRateBpm></Trackpoint><Trackpoint><Time>2026-02-20T16:52:19Z</Time><HeartRateBpm><Value>120</Value></HeartRateBpm></Trackpoint><Trackpoint><Time>2026-02-20T16:52:29Z</Time><HeartRateBpm><Value>119</Value></HeartRateBpm></Trackpoint><Trackpoint><Time>2026-02-20T16:52:40Z</Time><HeartRateBpm><Value>115</Value></HeartRateBpm></Trackpoint><Trackpoint><Time>2026-02-20T16:52:50Z</Time><HeartRateBpm><Value>116</Value></HeartRateBpm></Trackpoint><Trackpoint><Time>2026-02-20T16:53:00Z</Time><HeartRateBpm><Value>120</Value></HeartRateBpm></Trackpoint><Trackpoint><Time>2026-02-20T16:53:10Z</Time><HeartRateBpm><Value>120</Value></HeartRateBpm></Trackpoint><Trackpoint><Time>2026-02-20T16:53:20Z</Time><HeartRateBpm><Value>119</Value></HeartRateBpm></Trackpoint><Trackpoint><Time>2026-02-20T16:53:30Z</Time><HeartRateBpm><Value>110</Value></HeartRateBpm></Trackpoint><Trackpoint><Time>2026-02-20T16:53:40Z</Time><HeartRateBpm><Value>113</Value></HeartRateBpm></Trackpoint><Trackpoint><Time>2026-02-20T16:53:50Z</Time><HeartRateBpm><Value>112</Value></HeartRateBpm></Trackpoint><Trackpoint><Time>2026-02-20T16:54:01Z</Time><HeartRateBpm><Value>140</Value></HeartRateBpm></Trackpoint><Trackpoint><Time>2026-02-20T16:54:11Z</Time><HeartRateBpm><Value>119</Value></HeartRateBpm></Trackpoint><Trackpoint><Time>2026-02-20T16:54:21Z</Time><HeartRateBpm><Value>120</Value></HeartRateBpm></Trackpoint><Trackpoint><Time>2026-02-20T16:54:31Z</Time><HeartRateBpm><Value>120</Value></HeartRateBpm></Trackpoint><Trackpoint><Time>2026-02-20T16:54:41Z</Time><HeartRateBpm><Value>140</Value></HeartRateBpm></Trackpoint><Trackpoint><Time>2026-02-20T16:54:52Z</Time><HeartRateBpm><Value>135</Value></HeartRateBpm></Trackpoint><Trackpoint><Time>2026-02-20T16:55:02Z</Time><HeartRateBpm><Value>137</Value></HeartRateBpm></Trackpoint><Trackpoint><Time>2026-02-20T16:55:12Z</Time><HeartRateBpm><Value>137</Value></HeartRateBpm></Trackpoint><Trackpoint><Time>2026-02-20T16:55:22Z</Time><HeartRateBpm><Value>136</Value></HeartRateBpm></Trackpoint><Trackpoint><Time>2026-02-20T16:55:32Z</Time><HeartRateBpm><Value>126</Value></HeartRateBpm></Trackpoint><Trackpoint><Time>2026-02-20T16:55:43Z</Time><HeartRateBpm><Value>110</Value></HeartRateBpm></Trackpoint><Trackpoint><Time>2026-02-20T16:55:53Z</Time><HeartRateBpm><Value>110</Value></HeartRateBpm></Trackpoint><Trackpoint><Time>2026-02-20T16:56:03Z</Time><HeartRateBpm><Value>109</Value></HeartRateBpm></Trackpoint><Trackpoint><Time>2026-02-20T16:56:13Z</Time><HeartRateBpm><Value>110</Value></HeartRateBpm></Trackpoint><Trackpoint><Time>2026-02-20T16:56:23Z</Time><HeartRateBpm><Value>132</Value></HeartRateBpm></Trackpoint><Trackpoint><Time>2026-02-20T16:56:34Z</Time><HeartRateBpm><Value>112</Value></HeartRateBpm></Trackpoint><Trackpoint><Time>2026-02-20T16:56:43Z</Time><HeartRateBpm><Value>130</Value></HeartRateBpm></Trackpoint><Trackpoint><Time>2026-02-20T16:56:54Z</Time><HeartRateBpm><Value>132</Value></HeartRateBpm></Trackpoint><Trackpoint><Time>2026-02-20T16:57:04Z</Time><HeartRateBpm><Value>114</Value></HeartRateBpm></Trackpoint><Trackpoint><Time>2026-02-20T16:57:14Z</Time><HeartRateBpm><Value>109</Value></HeartRateBpm></Trackpoint><Trackpoint><Time>2026-02-20T16:57:24Z</Time><HeartRateBpm><Value>105</Value></HeartRateBpm></Trackpoint><Trackpoint><Time>2026-02-20T16:57:34Z</Time><HeartRateBpm><Value>105</Value></HeartRateBpm></Trackpoint><Trackpoint><Time>2026-02-20T16:57:44Z</Time><HeartRateBpm><Value>103</Value></HeartRateBpm></Trackpoint><Trackpoint><Time>2026-02-20T16:57:55Z</Time><HeartRateBpm><Value>110</Value></HeartRateBpm></Trackpoint><Trackpoint><Time>2026-02-20T16:58:05Z</Time><HeartRateBpm><Value>121</Value></HeartRateBpm></Trackpoint><Trackpoint><Time>2026-02-20T16:58:15Z</Time><HeartRateBpm><Value>121</Value></HeartRateBpm></Trackpoint><Trackpoint><Time>2026-02-20T16:58:25Z</Time><HeartRateBpm><Value>115</Value></HeartRateBpm></Trackpoint><Trackpoint><Time>2026-02-20T16:58:36Z</Time><HeartRateBpm><Value>110</Value></HeartRateBpm></Trackpoint><Trackpoint><Time>2026-02-20T16:58:46Z</Time><HeartRateBpm><Value>108</Value></HeartRateBpm></Trackpoint><Trackpoint><Time>2026-02-20T16:58:56Z</Time><HeartRateBpm><Value>132</Value></HeartRateBpm></Trackpoint><Trackpoint><Time>2026-02-20T16:59:06Z</Time><HeartRateBpm><Value>112</Value></HeartRateBpm></Trackpoint><Trackpoint><Time>2026-02-20T16:59:26Z</Time><HeartRateBpm><Value>121</Value></HeartRateBpm></Trackpoint><Trackpoint><Time>2026-02-20T16:59:37Z</Time><HeartRateBpm><Value>132</Value></HeartRateBpm></Trackpoint><Trackpoint><Time>2026-02-20T16:59:47Z</Time><HeartRateBpm><Value>131</Value></HeartRateBpm></Trackpoint><Trackpoint><Time>2026-02-20T16:59:57Z</Time><HeartRateBpm><Value>120</Value></HeartRateBpm></Trackpoint><Trackpoint><Time>2026-02-20T17:00:07Z</Time><HeartRateBpm><Value>122</Value></HeartRateBpm></Trackpoint><Trackpoint><Time>2026-02-20T17:00:17Z</Time><HeartRateBpm><Value>120</Value></HeartRateBpm></Trackpoint><Trackpoint><Time>2026-02-20T17:00:27Z</Time><HeartRateBpm><Value>120</Value></HeartRateBpm></Trackpoint><Trackpoint><Time>2026-02-20T17:00:38Z</Time><HeartRateBpm><Value>120</Value></HeartRateBpm></Trackpoint><Trackpoint><Time>2026-02-20T17:00:48Z</Time><HeartRateBpm><Value>122</Value></HeartRateBpm></Trackpoint><Trackpoint><Time>2026-02-20T17:00:58Z</Time><HeartRateBpm><Value>121</Value></HeartRateBpm></Trackpoint><Trackpoint><Time>2026-02-20T17:01:08Z</Time><HeartRateBpm><Value>126</Value></HeartRateBpm></Trackpoint><Trackpoint><Time>2026-02-20T17:01:18Z</Time><HeartRateBpm><Value>124</Value></HeartRateBpm></Trackpoint><Trackpoint><Time>2026-02-20T17:01:29Z</Time><HeartRateBpm><Value>107</Value></HeartRateBpm></Trackpoint><Trackpoint><Time>2026-02-20T17:01:39Z</Time><HeartRateBpm><Value>109</Value></HeartRateBpm></Trackpoint><Trackpoint><Time>2026-02-20T17:01:49Z</Time><HeartRateBpm><Value>108</Value></HeartRateBpm></Trackpoint><Trackpoint><Time>2026-02-20T17:01:59Z</Time><HeartRateBpm><Value>108</Value></HeartRateBpm></Trackpoint><Trackpoint><Time>2026-02-20T17:02:09Z</Time><HeartRateBpm><Value>117</Value></HeartRateBpm></Trackpoint><Trackpoint><Time>2026-02-20T17:02:19Z</Time><HeartRateBpm><Value>105</Value></HeartRateBpm></Trackpoint><Trackpoint><Time>2026-02-20T17:02:30Z</Time><HeartRateBpm><Value>107</Value></HeartRateBpm></Trackpoint><Trackpoint><Time>2026-02-20T17:02:40Z</Time><HeartRateBpm><Value>113</Value></HeartRateBpm></Trackpoint><Trackpoint><Time>2026-02-20T17:02:50Z</Time><HeartRateBpm><Value>114</Value></HeartRateBpm></Trackpoint><Trackpoint><Time>2026-02-20T17:03:00Z</Time><HeartRateBpm><Value>117</Value></HeartRateBpm></Trackpoint><Trackpoint><Time>2026-02-20T17:03:10Z</Time><HeartRateBpm><Value>117</Value></HeartRateBpm></Trackpoint><Trackpoint><Time>2026-02-20T17:03:20Z</Time><HeartRateBpm><Value>109</Value></HeartRateBpm></Trackpoint><Trackpoint><Time>2026-02-20T17:03:30Z</Time><HeartRateBpm><Value>106</Value></HeartRateBpm></Trackpoint><Trackpoint><Time>2026-02-20T17:03:41Z</Time><HeartRateBpm><Value>97</Value></HeartRateBpm></Trackpoint><Trackpoint><Time>2026-02-20T17:03:51Z</Time><HeartRateBpm><Value>97</Value></HeartRateBpm></Trackpoint><Trackpoint><Time>2026-02-20T17:04:01Z</Time><HeartRateBpm><Value>98</Value></HeartRateBpm></Trackpoint><Trackpoint><Time>2026-02-20T17:04:11Z</Time><HeartRateBpm><Value>103</Value></HeartRateBpm></Trackpoint><Trackpoint><Time>2026-02-20T17:04:21Z</Time><HeartRateBpm><Value>99</Value></HeartRateBpm></Trackpoint><Trackpoint><Time>2026-02-20T17:04:31Z</Time><HeartRateBpm><Value>97</Value></HeartRateBpm></Trackpoint><Trackpoint><Time>2026-02-20T17:04:42Z</Time><HeartRateBpm><Value>98</Value></HeartRateBpm></Trackpoint><Trackpoint><Time>2026-02-20T17:04:52Z</Time><HeartRateBpm><Value>103</Value></HeartRateBpm></Trackpoint><Trackpoint><Time>2026-02-20T17:05:02Z</Time><HeartRateBpm><Value>102</Value></HeartRateBpm></Trackpoint><Trackpoint><Time>2026-02-20T17:05:12Z</Time><HeartRateBpm><Value>105</Value></HeartRateBpm></Trackpoint><Trackpoint><Time>2026-02-20T17:05:22Z</Time><HeartRateBpm><Value>103</Value></HeartRateBpm></Trackpoint><Trackpoint><Time>2026-02-20T17:05:33Z</Time><HeartRateBpm><Value>105</Value></HeartRateBpm></Trackpoint><Trackpoint><Time>2026-02-20T17:05:43Z</Time><HeartRateBpm><Value>104</Value></HeartRateBpm></Trackpoint><Trackpoint><Time>2026-02-20T17:05:53Z</Time><HeartRateBpm><Value>103</Value></HeartRateBpm></Trackpoint><Trackpoint><Time>2026-02-20T17:06:03Z</Time><HeartRateBpm><Value>103</Value></HeartRateBpm></Trackpoint><Trackpoint><Time>2026-02-20T17:06:13Z</Time><HeartRateBpm><Value>120</Value></HeartRateBpm></Trackpoint><Trackpoint><Time>2026-02-20T17:06:23Z</Time><HeartRateBpm><Value>120</Value></HeartRateBpm></Trackpoint><Trackpoint><Time>2026-02-20T17:06:34Z</Time><HeartRateBpm><Value>120</Value></HeartRateBpm></Trackpoint><Trackpoint><Time>2026-02-20T17:06:44Z</Time><HeartRateBpm><Value>119</Value></HeartRateBpm></Trackpoint><Trackpoint><Time>2026-02-20T17:06:54Z</Time><HeartRateBpm><Value>111</Value></HeartRateBpm></Trackpoint><Trackpoint><Time>2026-02-20T17:07:04Z</Time><HeartRateBpm><Value>108</Value></HeartRateBpm></Trackpoint><Trackpoint><Time>2026-02-20T17:07:14Z</Time><HeartRateBpm><Value>108</Value></HeartRateBpm></Trackpoint><Trackpoint><Time>2026-02-20T17:07:25Z</Time><HeartRateBpm><Value>109</Value></HeartRateBpm></Trackpoint><Trackpoint><Time>2026-02-20T17:07:35Z</Time><HeartRateBpm><Value>109</Value></HeartRateBpm></Trackpoint><Trackpoint><Time>2026-02-20T17:07:45Z</Time><HeartRateBpm><Value>106</Value></HeartRateBpm></Trackpoint><Trackpoint><Time>2026-02-20T17:07:55Z</Time><HeartRateBpm><Value>112</Value></HeartRateBpm></Trackpoint><Trackpoint><Time>2026-02-20T17:08:05Z</Time><HeartRateBpm><Value>112</Value></HeartRateBpm></Trackpoint><Trackpoint><Time>2026-02-20T17:08:16Z</Time><HeartRateBpm><Value>108</Value></HeartRateBpm></Trackpoint><Trackpoint><Time>2026-02-20T17:08:26Z</Time><HeartRateBpm><Value>109</Value></HeartRateBpm></Trackpoint><Trackpoint><Time>2026-02-20T17:08:36Z</Time><HeartRateBpm><Value>104</Value></HeartRateBpm></Trackpoint><Trackpoint><Time>2026-02-20T17:08:46Z</Time><HeartRateBpm><Value>112</Value></HeartRateBpm></Trackpoint><Trackpoint><Time>2026-02-20T17:08:56Z</Time><HeartRateBpm><Value>136</Value></HeartRateBpm></Trackpoint><Trackpoint><Time>2026-02-20T17:09:06Z</Time><HeartRateBpm><Value>111</Value></HeartRateBpm></Trackpoint><Trackpoint><Time>2026-02-20T17:09:17Z</Time><HeartRateBpm><Value>134</Value></HeartRateBpm></Trackpoint><Trackpoint><Time>2026-02-20T17:09:27Z</Time><HeartRateBpm><Value>131</Value></HeartRateBpm></Trackpoint><Trackpoint><Time>2026-02-20T17:09:37Z</Time><HeartRateBpm><Value>136</Value></HeartRateBpm></Trackpoint><Trackpoint><Time>2026-02-20T17:09:47Z</Time><HeartRateBpm><Value>136</Value></HeartRateBpm></Trackpoint><Trackpoint><Time>2026-02-20T17:09:57Z</Time><HeartRateBpm><Value>133</Value></HeartRateBpm></Trackpoint><Trackpoint><Time>2026-02-20T17:10:08Z</Time><HeartRateBpm><Value>119</Value></HeartRateBpm></Trackpoint><Trackpoint><Time>2026-02-20T17:10:17Z</Time><HeartRateBpm><Value>111</Value></HeartRateBpm></Trackpoint><Trackpoint><Time>2026-02-20T17:10:28Z</Time><HeartRateBpm><Value>111</Value></HeartRateBpm></Trackpoint><Trackpoint><Time>2026-02-20T17:10:38Z</Time><HeartRateBpm><Value>116</Value></HeartRateBpm></Trackpoint><Trackpoint><Time>2026-02-20T17:10:48Z</Time><HeartRateBpm><Value>116</Value></HeartRateBpm></Trackpoint><Trackpoint><Time>2026-02-20T17:10:58Z</Time><HeartRateBpm><Value>115</Value></HeartRateBpm></Trackpoint><Trackpoint><Time>2026-02-20T17:11:08Z</Time><HeartRateBpm><Value>116</Value></HeartRateBpm></Trackpoint><Trackpoint><Time>2026-02-20T17:11:18Z</Time><HeartRateBpm><Value>105</Value></HeartRateBpm></Trackpoint><Trackpoint><Time>2026-02-20T17:11:29Z</Time><HeartRateBpm><Value>117</Value></HeartRateBpm></Trackpoint><Trackpoint><Time>2026-02-20T17:11:39Z</Time><HeartRateBpm><Value>105</Value></HeartRateBpm></Trackpoint><Trackpoint><Time>2026-02-20T17:11:49Z</Time><HeartRateBpm><Value>106</Value></HeartRateBpm></Trackpoint><Trackpoint><Time>2026-02-20T17:11:59Z</Time><HeartRateBpm><Value>105</Value></HeartRateBpm></Trackpoint><Trackpoint><Time>2026-02-20T17:12:09Z</Time><HeartRateBpm><Value>108</Value></HeartRateBpm></Trackpoint><Trackpoint><Time>2026-02-20T17:12:20Z</Time><HeartRateBpm><Value>117</Value></HeartRateBpm></Trackpoint><Trackpoint><Time>2026-02-20T17:12:30Z</Time><HeartRateBpm><Value>130</Value></HeartRateBpm></Trackpoint><Trackpoint><Time>2026-02-20T17:12:40Z</Time><HeartRateBpm><Value>130</Value></HeartRateBpm></Trackpoint><Trackpoint><Time>2026-02-20T17:12:50Z</Time><HeartRateBpm><Value>122</Value></HeartRateBpm></Trackpoint><Trackpoint><Time>2026-02-20T17:13:00Z</Time><HeartRateBpm><Value>120</Value></HeartRateBpm></Trackpoint><Trackpoint><Time>2026-02-20T17:13:11Z</Time><HeartRateBpm><Value>112</Value></HeartRateBpm></Trackpoint><Trackpoint><Time>2026-02-20T17:13:21Z</Time><HeartRateBpm><Value>111</Value></HeartRateBpm></Trackpoint><Trackpoint><Time>2026-02-20T17:13:31Z</Time><HeartRateBpm><Value>115</Value></HeartRateBpm></Trackpoint><Trackpoint><Time>2026-02-20T17:13:41Z</Time><HeartRateBpm><Value>120</Value></HeartRateBpm></Trackpoint><Trackpoint><Time>2026-02-20T17:13:51Z</Time><HeartRateBpm><Value>118</Value></HeartRateBpm></Trackpoint><Trackpoint><Time>2026-02-20T17:14:01Z</Time><HeartRateBpm><Value>120</Value></HeartRateBpm></Trackpoint><Trackpoint><Time>2026-02-20T17:14:12Z</Time><HeartRateBpm><Value>101</Value></HeartRateBpm></Trackpoint><Trackpoint><Time>2026-02-20T17:14:22Z</Time><HeartRateBpm><Value>95</Value></HeartRateBpm></Trackpoint><Trackpoint><Time>2026-02-20T17:14:32Z</Time><HeartRateBpm><Value>94</Value></HeartRateBpm></Trackpoint><Trackpoint><Time>2026-02-20T17:14:42Z</Time><HeartRateBpm><Value>109</Value></HeartRateBpm></Trackpoint><Trackpoint><Time>2026-02-20T17:14:52Z</Time><HeartRateBpm><Value>106</Value></HeartRateBpm></Trackpoint><Trackpoint><Time>2026-02-20T17:15:03Z</Time><HeartRateBpm><Value>137</Value></HeartRateBpm></Trackpoint><Trackpoint><Time>2026-02-20T17:15:13Z</Time><HeartRateBpm><Value>126</Value></HeartRateBpm></Trackpoint><Trackpoint><Time>2026-02-20T17:15:23Z</Time><HeartRateBpm><Value>127</Value></HeartRateBpm></Trackpoint><Trackpoint><Time>2026-02-20T17:15:33Z</Time><HeartRateBpm><Value>122</Value></HeartRateBpm></Trackpoint><Trackpoint><Time>2026-02-20T17:15:43Z</Time><HeartRateBpm><Value>136</Value></HeartRateBpm></Trackpoint><Trackpoint><Time>2026-02-20T17:15:53Z</Time><HeartRateBpm><Value>137</Value></HeartRateBpm></Trackpoint><Trackpoint><Time>2026-02-20T17:16:04Z</Time><HeartRateBpm><Value>114</Value></HeartRateBpm></Trackpoint><Trackpoint><Time>2026-02-20T17:16:14Z</Time><HeartRateBpm><Value>106</Value></HeartRateBpm></Trackpoint><Trackpoint><Time>2026-02-20T17:16:24Z</Time><HeartRateBpm><Value>100</Value></HeartRateBpm></Trackpoint><Trackpoint><Time>2026-02-20T17:16:34Z</Time><HeartRateBpm><Value>92</Value></HeartRateBpm></Trackpoint><Trackpoint><Time>2026-02-20T17:16:44Z</Time><HeartRateBpm><Value>91</Value></HeartRateBpm></Trackpoint><Trackpoint><Time>2026-02-20T17:16:55Z</Time><HeartRateBpm><Value>95</Value></HeartRateBpm></Trackpoint><Trackpoint><Time>2026-02-20T17:17:04Z</Time><HeartRateBpm><Value>126</Value></HeartRateBpm></Trackpoint><Trackpoint><Time>2026-02-20T17:17:15Z</Time><HeartRateBpm><Value>96</Value></HeartRateBpm></Trackpoint><Trackpoint><Time>2026-02-20T17:17:25Z</Time><HeartRateBpm><Value>117</Value></HeartRateBpm></Trackpoint><Trackpoint><Time>2026-02-20T17:17:35Z</Time><HeartRateBpm><Value>120</Value></HeartRateBpm></Trackpoint><Trackpoint><Time>2026-02-20T17:17:45Z</Time><HeartRateBpm><Value>126</Value></HeartRateBpm></Trackpoint><Trackpoint><Time>2026-02-20T17:17:55Z</Time><HeartRateBpm><Value>123</Value></HeartRateBpm></Trackpoint><Trackpoint><Time>2026-02-20T17:18:05Z</Time><HeartRateBpm><Value>137</Value></HeartRateBpm></Trackpoint><Trackpoint><Time>2026-02-20T17:18:16Z</Time><HeartRateBpm><Value>135</Value></HeartRateBpm></Trackpoint><Trackpoint><Time>2026-02-20T17:18:26Z</Time><HeartRateBpm><Value>137</Value></HeartRateBpm></Trackpoint><Trackpoint><Time>2026-02-20T17:18:36Z</Time><HeartRateBpm><Value>131</Value></HeartRateBpm></Trackpoint><Trackpoint><Time>2026-02-20T17:18:46Z</Time><HeartRateBpm><Value>127</Value></HeartRateBpm></Trackpoint><Trackpoint><Time>2026-02-20T17:18:56Z</Time><HeartRateBpm><Value>117</Value></HeartRateBpm></Trackpoint><Trackpoint><Time>2026-02-20T17:19:07Z</Time><HeartRateBpm><Value>128</Value></HeartRateBpm></Trackpoint><Trackpoint><Time>2026-02-20T17:19:17Z</Time><HeartRateBpm><Value>126</Value></HeartRateBpm></Trackpoint><Trackpoint><Time>2026-02-20T17:19:27Z</Time><HeartRateBpm><Value>118</Value></HeartRateBpm></Trackpoint><Trackpoint><Time>2026-02-20T17:19:37Z</Time><HeartRateBpm><Value>114</Value></HeartRateBpm></Trackpoint><Trackpoint><Time>2026-02-20T17:19:47Z</Time><HeartRateBpm><Value>127</Value></HeartRateBpm></Trackpoint><Trackpoint><Time>2026-02-20T17:19:58Z</Time><HeartRateBpm><Value>126</Value></HeartRateBpm></Trackpoint><Trackpoint><Time>2026-02-20T17:20:08Z</Time><HeartRateBpm><Value>137</Value></HeartRateBpm></Trackpoint><Trackpoint><Time>2026-02-20T17:20:18Z</Time><HeartRateBpm><Value>137</Value></HeartRateBpm></Trackpoint><Trackpoint><Time>2026-02-20T17:20:28Z</Time><HeartRateBpm><Value>133</Value></HeartRateBpm></Trackpoint><Trackpoint><Time>2026-02-20T17:20:38Z</Time><HeartRateBpm><Value>137</Value></HeartRateBpm></Trackpoint><Trackpoint><Time>2026-02-20T17:20:48Z</Time><HeartRateBpm><Value>136</Value></HeartRateBpm></Trackpoint><Trackpoint><Time>2026-02-20T17:20:59Z</Time><HeartRateBpm><Value>126</Value></HeartRateBpm></Trackpoint><Trackpoint><Time>2026-02-20T17:21:08Z</Time><HeartRateBpm><Value>122</Value></HeartRateBpm></Trackpoint><Trackpoint><Time>2026-02-20T17:21:19Z</Time><HeartRateBpm><Value>122</Value></HeartRateBpm></Trackpoint><Trackpoint><Time>2026-02-20T17:21:29Z</Time><HeartRateBpm><Value>117</Value></HeartRateBpm></Trackpoint><Trackpoint><Time>2026-02-20T17:21:39Z</Time><HeartRateBpm><Value>117</Value></HeartRateBpm></Trackpoint><Trackpoint><Time>2026-02-20T17:21:49Z</Time><HeartRateBpm><Value>112</Value></HeartRateBpm></Trackpoint><Trackpoint><Time>2026-02-20T17:21:59Z</Time><HeartRateBpm><Value>115</Value></HeartRateBpm></Trackpoint><Trackpoint><Time>2026-02-20T17:22:10Z</Time><HeartRateBpm><Value>109</Value></HeartRateBpm></Trackpoint><Trackpoint><Time>2026-02-20T17:22:20Z</Time><HeartRateBpm><Value>105</Value></HeartRateBpm></Trackpoint><Trackpoint><Time>2026-02-20T17:22:30Z</Time><HeartRateBpm><Value>105</Value></HeartRateBpm></Trackpoint><Trackpoint><Time>2026-02-20T17:22:40Z</Time><HeartRateBpm><Value>96</Value></HeartRateBpm></Trackpoint><Trackpoint><Time>2026-02-20T17:22:50Z</Time><HeartRateBpm><Value>93</Value></HeartRateBpm></Trackpoint><Trackpoint><Time>2026-02-20T17:23:01Z</Time><HeartRateBpm><Value>94</Value></HeartRateBpm></Trackpoint><Trackpoint><Time>2026-02-20T17:23:11Z</Time><HeartRateBpm><Value>102</Value></HeartRateBpm></Trackpoint><Trackpoint><Time>2026-02-20T17:23:21Z</Time><HeartRateBpm><Value>102</Value></HeartRateBpm></Trackpoint><Trackpoint><Time>2026-02-20T17:23:31Z</Time><HeartRateBpm><Value>93</Value></HeartRateBpm></Trackpoint><Trackpoint><Time>2026-02-20T17:23:41Z</Time><HeartRateBpm><Value>93</Value></HeartRateBpm></Trackpoint><Trackpoint><Time>2026-02-20T17:23:51Z</Time><HeartRateBpm><Value>96</Value></HeartRateBpm></Trackpoint><Trackpoint><Time>2026-02-20T17:24:02Z</Time><HeartRateBpm><Value>95</Value></HeartRateBpm></Trackpoint><Trackpoint><Time>2026-02-20T17:24:12Z</Time><HeartRateBpm><Value>139</Value></HeartRateBpm></Trackpoint><Trackpoint><Time>2026-02-20T17:24:22Z</Time><HeartRateBpm><Value>91</Value></HeartRateBpm></Trackpoint><Trackpoint><Time>2026-02-20T17:24:32Z</Time><HeartRateBpm><Value>97</Value></HeartRateBpm></Trackpoint><Trackpoint><Time>2026-02-20T17:24:42Z</Time><HeartRateBpm><Value>110</Value></HeartRateBpm></Trackpoint><Trackpoint><Time>2026-02-20T17:24:53Z</Time><HeartRateBpm><Value>137</Value></HeartRateBpm></Trackpoint><Trackpoint><Time>2026-02-20T17:25:03Z</Time><HeartRateBpm><Value>139</Value></HeartRateBpm></Trackpoint><Trackpoint><Time>2026-02-20T17:25:13Z</Time><HeartRateBpm><Value>137</Value></HeartRateBpm></Trackpoint><Trackpoint><Time>2026-02-20T17:25:23Z</Time><HeartRateBpm><Value>129</Value></HeartRateBpm></Trackpoint><Trackpoint><Time>2026-02-20T17:25:33Z</Time><HeartRateBpm><Value>130</Value></HeartRateBpm></Trackpoint><Trackpoint><Time>2026-02-20T17:25:44Z</Time><HeartRateBpm><Value>129</Value></HeartRateBpm></Trackpoint><Trackpoint><Time>2026-02-20T17:25:53Z</Time><HeartRateBpm><Value>130</Value></HeartRateBpm></Trackpoint><Trackpoint><Time>2026-02-20T17:26:04Z</Time><HeartRateBpm><Value>129</Value></HeartRateBpm></Trackpoint><Trackpoint><Time>2026-02-20T17:26:14Z</Time><HeartRateBpm><Value>129</Value></HeartRateBpm></Trackpoint><Trackpoint><Time>2026-02-20T17:26:24Z</Time><HeartRateBpm><Value>128</Value></HeartRateBpm></Trackpoint><Trackpoint><Time>2026-02-20T17:26:34Z</Time><HeartRateBpm><Value>121</Value></HeartRateBpm></Trackpoint><Trackpoint><Time>2026-02-20T17:26:44Z</Time><HeartRateBpm><Value>118</Value></HeartRateBpm></Trackpoint><Trackpoint><Time>2026-02-20T17:26:55Z</Time><HeartRateBpm><Value>122</Value></HeartRateBpm></Trackpoint><Trackpoint><Time>2026-02-20T17:27:05Z</Time><HeartRateBpm><Value>129</Value></HeartRateBpm></Trackpoint><Trackpoint><Time>2026-02-20T17:27:15Z</Time><HeartRateBpm><Value>134</Value></HeartRateBpm></Trackpoint><Trackpoint><Time>2026-02-20T17:27:25Z</Time><HeartRateBpm><Value>129</Value></HeartRateBpm></Trackpoint><Trackpoint><Time>2026-02-20T17:27:35Z</Time><HeartRateBpm><Value>125</Value></HeartRateBpm></Trackpoint><Trackpoint><Time>2026-02-20T17:27:46Z</Time><HeartRateBpm><Value>119</Value></HeartRateBpm></Trackpoint><Trackpoint><Time>2026-02-20T17:27:56Z</Time><HeartRateBpm><Value>121</Value></HeartRateBpm></Trackpoint><Trackpoint><Time>2026-02-20T17:28:06Z</Time><HeartRateBpm><Value>125</Value></HeartRateBpm></Trackpoint><Trackpoint><Time>2026-02-20T17:28:16Z</Time><HeartRateBpm><Value>125</Value></HeartRateBpm></Trackpoint><Trackpoint><Time>2026-02-20T17:28:26Z</Time><HeartRateBpm><Value>116</Value></HeartRateBpm></Trackpoint><Trackpoint><Time>2026-02-20T17:28:36Z</Time><HeartRateBpm><Value>114</Value></HeartRateBpm></Trackpoint><Trackpoint><Time>2026-02-20T17:28:46Z</Time><HeartRateBpm><Value>120</Value></HeartRateBpm></Trackpoint><Trackpoint><Time>2026-02-20T17:28:57Z</Time><HeartRateBpm><Value>117</Value></HeartRateBpm></Trackpoint><Trackpoint><Time>2026-02-20T17:29:07Z</Time><HeartRateBpm><Value>121</Value></HeartRateBpm></Trackpoint><Trackpoint><Time>2026-02-20T17:29:17Z</Time><HeartRateBpm><Value>117</Value></HeartRateBpm></Trackpoint><Trackpoint><Time>2026-02-20T17:29:27Z</Time><HeartRateBpm><Value>116</Value></HeartRateBpm></Trackpoint><Trackpoint><Time>2026-02-20T17:29:37Z</Time><HeartRateBpm><Value>112</Value></HeartRateBpm></Trackpoint><Trackpoint><Time>2026-02-20T17:29:48Z</Time><HeartRateBpm><Value>110</Value></HeartRateBpm></Trackpoint><Trackpoint><Time>2026-02-20T17:29:58Z</Time><HeartRateBpm><Value>114</Value></HeartRateBpm></Trackpoint><Trackpoint><Time>2026-02-20T17:30:08Z</Time><HeartRateBpm><Value>114</Value></HeartRateBpm></Trackpoint><Trackpoint><Time>2026-02-20T17:30:18Z</Time><HeartRateBpm><Value>116</Value></HeartRateBpm></Trackpoint><Trackpoint><Time>2026-02-20T17:30:28Z</Time><HeartRateBpm><Value>111</Value></HeartRateBpm></Trackpoint><Trackpoint><Time>2026-02-20T17:30:39Z</Time><HeartRateBpm><Value>108</Value></HeartRateBpm></Trackpoint><Trackpoint><Time>2026-02-20T17:30:49Z</Time><HeartRateBpm><Value>108</Value></HeartRateBpm></Trackpoint><Trackpoint><Time>2026-02-20T17:30:59Z</Time><HeartRateBpm><Value>103</Value></HeartRateBpm></Trackpoint><Trackpoint><Time>2026-02-20T17:31:09Z</Time><HeartRateBpm><Value>99</Value></HeartRateBpm></Trackpoint><Trackpoint><Time>2026-02-20T17:31:19Z</Time><HeartRateBpm><Value>101</Value></HeartRateBpm></Trackpoint><Trackpoint><Time>2026-02-20T17:31:30Z</Time><HeartRateBpm><Value>107</Value></HeartRateBpm></Trackpoint><Trackpoint><Time>2026-02-20T17:31:39Z</Time><HeartRateBpm><Value>107</Value></HeartRateBpm></Trackpoint><Trackpoint><Time>2026-02-20T17:31:50Z</Time><HeartRateBpm><Value>120</Value></HeartRateBpm></Trackpoint><Trackpoint><Time>2026-02-20T17:32:00Z</Time><HeartRateBpm><Value>120</Value></HeartRateBpm></Trackpoint><Trackpoint><Time>2026-02-20T17:32:10Z</Time><HeartRateBpm><Value>116</Value></HeartRateBpm></Trackpoint><Trackpoint><Time>2026-02-20T17:32:20Z</Time><HeartRateBpm><Value>113</Value></HeartRateBpm></Trackpoint><Trackpoint><Time>2026-02-20T17:32:30Z</Time><HeartRateBpm><Value>112</Value></HeartRateBpm></Trackpoint><Trackpoint><Time>2026-02-20T17:32:41Z</Time><HeartRateBpm><Value>111</Value></HeartRateBpm></Trackpoint><Trackpoint><Time>2026-02-20T17:32:51Z</Time><HeartRateBpm><Value>121</Value></HeartRateBpm></Trackpoint><Trackpoint><Time>2026-02-20T17:33:01Z</Time><HeartRateBpm><Value>121</Value></HeartRateBpm></Trackpoint><Trackpoint><Time>2026-02-20T17:33:11Z</Time><HeartRateBpm><Value>116</Value></HeartRateBpm></Trackpoint><Trackpoint><Time>2026-02-20T17:33:21Z</Time><HeartRateBpm><Value>113</Value></HeartRateBpm></Trackpoint><Trackpoint><Time>2026-02-20T17:33:31Z</Time><HeartRateBpm><Value>108</Value></HeartRateBpm></Trackpoint><Trackpoint><Time>2026-02-20T17:33:41Z</Time><HeartRateBpm><Value>117</Value></HeartRateBpm></Trackpoint><Trackpoint><Time>2026-02-20T17:33:52Z</Time><HeartRateBpm><Value>117</Value></HeartRateBpm></Trackpoint><Trackpoint><Time>2026-02-20T17:34:02Z</Time><HeartRateBpm><Value>127</Value></HeartRateBpm></Trackpoint><Trackpoint><Time>2026-02-20T17:34:12Z</Time><HeartRateBpm><Value>110</Value></HeartRateBpm></Trackpoint><Trackpoint><Time>2026-02-20T17:34:22Z</Time><HeartRateBpm><Value>121</Value></HeartRateBpm></Trackpoint><Trackpoint><Time>2026-02-20T17:34:32Z</Time><HeartRateBpm><Value>122</Value></HeartRateBpm></Trackpoint><Trackpoint><Time>2026-02-20T17:34:43Z</Time><HeartRateBpm><Value>127</Value></HeartRateBpm></Trackpoint><Trackpoint><Time>2026-02-20T17:34:53Z</Time><HeartRateBpm><Value>126</Value></HeartRateBpm></Trackpoint><Trackpoint><Time>2026-02-20T17:35:03Z</Time><HeartRateBpm><Value>126</Value></HeartRateBpm></Trackpoint><Trackpoint><Time>2026-02-20T17:35:13Z</Time><HeartRateBpm><Value>118</Value></HeartRateBpm></Trackpoint><Trackpoint><Time>2026-02-20T17:35:23Z</Time><HeartRateBpm><Value>111</Value></HeartRateBpm></Trackpoint><Trackpoint><Time>2026-02-20T17:35:34Z</Time><HeartRateBpm><Value>109</Value></HeartRateBpm></Trackpoint><Trackpoint><Time>2026-02-20T17:35:44Z</Time><HeartRateBpm><Value>114</Value></HeartRateBpm></Trackpoint><Trackpoint><Time>2026-02-20T17:35:54Z</Time><HeartRateBpm><Value>118</Value></HeartRateBpm></Trackpoint><Trackpoint><Time>2026-02-20T17:36:04Z</Time><HeartRateBpm><Value>119</Value></HeartRateBpm></Trackpoint><Trackpoint><Time>2026-02-20T17:36:14Z</Time><HeartRateBpm><Value>117</Value></HeartRateBpm></Trackpoint><Trackpoint><Time>2026-02-20T17:36:24Z</Time><HeartRateBpm><Value>116</Value></HeartRateBpm></Trackpoint><Trackpoint><Time>2026-02-20T17:36:35Z</Time><HeartRateBpm><Value>115</Value></HeartRateBpm></Trackpoint><Trackpoint><Time>2026-02-20T17:36:45Z</Time><HeartRateBpm><Value>117</Value></HeartRateBpm></Trackpoint><Trackpoint><Time>2026-02-20T17:36:55Z</Time><HeartRateBpm><Value>119</Value></HeartRateBpm></Trackpoint><Trackpoint><Time>2026-02-20T17:37:05Z</Time><HeartRateBpm><Value>121</Value></HeartRateBpm></Trackpoint><Trackpoint><Time>2026-02-20T17:37:15Z</Time><HeartRateBpm><Value>120</Value></HeartRateBpm></Trackpoint><Trackpoint><Time>2026-02-20T17:37:25Z</Time><HeartRateBpm><Value>118</Value></HeartRateBpm></Trackpoint><Trackpoint><Time>2026-02-20T17:37:35Z</Time><HeartRateBpm><Value>120</Value></HeartRateBpm></Trackpoint><Trackpoint><Time>2026-02-20T17:37:46Z</Time><HeartRateBpm><Value>121</Value></HeartRateBpm></Trackpoint><Trackpoint><Time>2026-02-20T17:37:56Z</Time><HeartRateBpm><Value>117</Value></HeartRateBpm></Trackpoint><Trackpoint><Time>2026-02-20T17:38:06Z</Time><HeartRateBpm><Value>113</Value></HeartRateBpm><DistanceMeters>0.0</DistanceMeters></Trackpoint></Track></Lap></Activity></Activities></TrainingCenterDatabase>