<?xml version='1.0' encoding='UTF-8' standalone='yes' ?><TrainingCenterDatabase xsi:schemaLocation="http://www.garmin.com/xmlschemas/TrainingCenterDatabase/v2 http://www.garmin.com/xmlschemas/TrainingCenterDatabasev2.xsd" xmlns:ns5="http://www.garmin.com/xmlschemas/ActivityGoals/v1" xmlns:ns3="http://www.garmin.com/xmlschemas/ActivityExtension/v2" xmlns:ns2="http://www.garmin.com/xmlschemas/UserProfile/v2" xmlns="http://www.garmin.com/xmlschemas/TrainingCenterDatabase/v2" xmlns:xsi="http://www.w3.org/2001/XMLSchema-instance" xmlns:ns4="http://www.garmin.com/xmlschemas/ProfileExtension/v1"><Activities><Activity Sport="WALKING"><Id>2026-02-23T19:51:21Z</Id><Author><Name>Samsung Health</Name></Author><Lap StartTime="2026-02-23T19:51:21Z"><TotalTimeSeconds>639</TotalTimeSeconds><DistanceMeters>869.92</DistanceMeters><Calories>33</Calories><MaximumSpeed>1.5277778</MaximumSpeed><AverageHeartRateBpm><Value>0</Value></AverageHeartRateBpm><MaximumHeartRateBpm><Value>0</Value></MaximumHeartRateBpm><Intensity>Active</Intensity><TriggerMethod>Manual</TriggerMethod><Track><Trackpoint><Time>2026-02-23T19:51:21Z</Time><DistanceMeters>0</DistanceMeters><ns3:TPX><Speed>1.3888888</Speed></ns3:TPX></Trackpoint><Trackpoint><Time>2026-02-23T19:52:00Z</Time><DistanceMeters>140.73001</DistanceMeters><ns3:TPX><Speed>1.5277778</Speed></ns3:TPX></Trackpoint><Trackpoint><Time>2026-02-23T19:53:00Z</Time><DistanceMeters>221.74002</DistanceMeters><ns3:TPX><Speed>1.4444444</Speed></ns3:TPX></Trackpoint><Trackpoint><Time>2026-02-23T19:54:00Z</Time><DistanceMeters>301.74002</DistanceMeters><ns3:TPX><Speed>1.4166666</Speed></ns3:TPX></Trackpoint><Trackpoint><Time>2026-02-23T19:55:00Z</Time><DistanceMeters>380.24002</DistanceMeters><ns3:TPX><Speed>1.44273</Speed></ns3:TPX></Trackpoint><Trackpoint><Time>2026-02-23T19:56:00.564Z</Time><DistanceMeters>461.03003</DistanceMeters><ns3:TPX><Speed>1.4428087</Speed></ns3:TPX></Trackpoint><Trackpoint><Time>2026-02-23T19:57:00Z</Time><DistanceMeters>541.9</DistanceMeters><ns3:TPX><Speed>1.4444444</Speed></ns3:TPX></Trackpoint><Trackpoint><Time>2026-02-23T19:58:00Z</Time><DistanceMeters>622.74</DistanceMeters><ns3:TPX><Speed>1.4444444</Speed></ns3:TPX></Trackpoint><Trackpoint><Time>2026-02-23T19:59:00Z</Time><DistanceMeters>698.64</DistanceMeters><ns3:TPX><Speed>1.3611112</Speed></ns3:TPX></Trackpoint><Trackpoint><Time>2026-02-23T20:00:00Z</Time><DistanceMeters>775.23</DistanceMeters><ns3:TPX><Speed>1.3951259</Speed></ns3:TPX></Trackpoint><Trackpoint><Time>2026-02-23T20:01:00.246Z</Time><DistanceMeters>853.82996</DistanceMeters><ns3:TPX><Speed>1.3952208</Speed></ns3:TPX></Trackpoint><Trackpoint><Time>2026-02-23T20:02:00Z</Time><DistanceMeters>869.92</DistanceMeters><ns3:TPX><Speed>1.394054</Speed></ns3:TPX></Trackpoint></Track></Lap></Activity></Activities></TrainingCenterDatabase>